{
  "type": "FeatureCollection",
  "features": [
    {
      "type": "Feature",
      "geometry": {
        "type": "Point",
        "coordinates": [
          -0.4737,
          38.6987
        ]
      },
      "properties": {
        "estacion": "Alcoi/Alcoy",
        "provincia": "Alacant/Alicante",
        "temperatura": 24.0,
        "humedad": 59.0,
        "dpv": 1.22,
        "nivel": "Alto",
        "color": "#fdae61",
        "fuente": "AEMET"
      }
    },
    {
      "type": "Feature",
      "geometry": {
        "type": "Point",
        "coordinates": [
          -0.5582,
          38.2822
        ]
      },
      "properties": {
        "estacion": "Alicante-Elche Aeropuerto",
        "provincia": "Alacant/Alicante",
        "temperatura": 26.5,
        "humedad": 65.0,
        "dpv": 1.21,
        "nivel": "Alto",
        "color": "#fdae61",
        "fuente": "AEMET"
      }
    },
    {
      "type": "Feature",
      "geometry": {
        "type": "Point",
        "coordinates": [
          -0.1667,
          40.2167
        ]
      },
      "properties": {
        "estacion": "Atzeneta del Maestrat",
        "provincia": "Castelló/Castellón",
        "temperatura": 25.1,
        "humedad": 50.0,
        "dpv": 1.59,
        "nivel": "Alto",
        "color": "#fdae61",
        "fuente": "AEMET"
      }
    },
    {
      "type": "Feature",
      "geometry": {
        "type": "Point",
        "coordinates": [
          -0.1225,
          38.5411
        ]
      },
      "properties": {
        "estacion": "Benidorm",
        "provincia": "Alacant/Alicante",
        "temperatura": 25.0,
        "humedad": 72.0,
        "dpv": 0.89,
        "nivel": "Moderado",
        "color": "#abdda4",
        "fuente": "AEMET"
      }
    },
    {
      "type": "Feature",
      "geometry": {
        "type": "Point",
        "coordinates": [
          -0.7878,
          39.1328
        ]
      },
      "properties": {
        "estacion": "Bicorp",
        "provincia": "València/Valencia",
        "temperatura": 25.8,
        "humedad": 58.0,
        "dpv": 1.4,
        "nivel": "Alto",
        "color": "#fdae61",
        "fuente": "AEMET"
      }
    },
    {
      "type": "Feature",
      "geometry": {
        "type": "Point",
        "coordinates": [
          -0.1917,
          40.5028
        ]
      },
      "properties": {
        "estacion": "Castellfort",
        "provincia": "Castelló/Castellón",
        "temperatura": 19.5,
        "humedad": 47.0,
        "dpv": 1.2,
        "nivel": "Alto",
        "color": "#fdae61",
        "fuente": "AEMET"
      }
    },
    {
      "type": "Feature",
      "geometry": {
        "type": "Point",
        "coordinates": [
          -0.065,
          39.956
        ]
      },
      "properties": {
        "estacion": "Castelló - Almassora",
        "provincia": "Castelló/Castellón",
        "temperatura": 25.8,
        "humedad": 69.0,
        "dpv": 1.03,
        "nivel": "Moderado",
        "color": "#abdda4",
        "fuente": "AEMET"
      }
    },
    {
      "type": "Feature",
      "geometry": {
        "type": "Point",
        "coordinates": [
          -0.9967,
          39.7494
        ]
      },
      "properties": {
        "estacion": "Chelva",
        "provincia": "València/Valencia",
        "temperatura": 24.8,
        "humedad": 54.0,
        "dpv": 1.44,
        "nivel": "Alto",
        "color": "#fdae61",
        "fuente": "AEMET"
      }
    },
    {
      "type": "Feature",
      "geometry": {
        "type": "Point",
        "coordinates": [
          -1.0414,
          38.4011
        ]
      },
      "properties": {
        "estacion": "el Pinós/Pinoso",
        "provincia": "Alacant/Alicante",
        "temperatura": 23.7,
        "humedad": 56.0,
        "dpv": 1.29,
        "nivel": "Alto",
        "color": "#fdae61",
        "fuente": "AEMET"
      }
    },
    {
      "type": "Feature",
      "geometry": {
        "type": "Point",
        "coordinates": [
          -0.7861,
          38.7842
        ]
      },
      "properties": {
        "estacion": "Fontanars dels Alforins",
        "provincia": "València/Valencia",
        "temperatura": 25.3,
        "humedad": 52.0,
        "dpv": 1.55,
        "nivel": "Alto",
        "color": "#fdae61",
        "fuente": "AEMET"
      }
    },
    {
      "type": "Feature",
      "geometry": {
        "type": "Point",
        "coordinates": [
          0.1631,
          38.789
        ]
      },
      "properties": {
        "estacion": "Jávea/ Xàbia",
        "provincia": "Alacant/Alicante",
        "temperatura": 24.5,
        "humedad": 70.0,
        "dpv": 0.92,
        "nivel": "Moderado",
        "color": "#abdda4",
        "fuente": "AEMET"
      }
    },
    {
      "type": "Feature",
      "geometry": {
        "type": "Point",
        "coordinates": [
          -0.5972,
          39.6289
        ]
      },
      "properties": {
        "estacion": "Llíria",
        "provincia": "València/Valencia",
        "temperatura": 25.2,
        "humedad": 64.0,
        "dpv": 1.15,
        "nivel": "Moderado",
        "color": "#abdda4",
        "fuente": "AEMET"
      }
    },
    {
      "type": "Feature",
      "geometry": {
        "type": "Point",
        "coordinates": [
          -0.1394,
          38.95
        ]
      },
      "properties": {
        "estacion": "Miramar",
        "provincia": "València/Valencia",
        "temperatura": 25.5,
        "humedad": 74.0,
        "dpv": 0.85,
        "nivel": "Moderado",
        "color": "#abdda4",
        "fuente": "AEMET"
      }
    },
    {
      "type": "Feature",
      "geometry": {
        "type": "Point",
        "coordinates": [
          -0.5225,
          40.0667
        ]
      },
      "properties": {
        "estacion": "Montanejos",
        "provincia": "Castelló/Castellón",
        "temperatura": 24.5,
        "humedad": 54.0,
        "dpv": 1.41,
        "nivel": "Alto",
        "color": "#fdae61",
        "fuente": "AEMET"
      }
    },
    {
      "type": "Feature",
      "geometry": {
        "type": "Point",
        "coordinates": [
          -0.0989,
          40.6197
        ]
      },
      "properties": {
        "estacion": "Morella",
        "provincia": "Castelló/Castellón",
        "temperatura": 21.4,
        "humedad": 57.0,
        "dpv": 1.1,
        "nivel": "Moderado",
        "color": "#abdda4",
        "fuente": "AEMET"
      }
    },
    {
      "type": "Feature",
      "geometry": {
        "type": "Point",
        "coordinates": [
          -0.1194,
          38.919
        ]
      },
      "properties": {
        "estacion": "Oliva",
        "provincia": "València/Valencia",
        "temperatura": 26.1,
        "humedad": 59.0,
        "dpv": 1.39,
        "nivel": "Alto",
        "color": "#fdae61",
        "fuente": "AEMET"
      }
    },
    {
      "type": "Feature",
      "geometry": {
        "type": "Point",
        "coordinates": [
          -0.3697,
          39.1964
        ]
      },
      "properties": {
        "estacion": "Polinyà de Xúquer",
        "provincia": "València/Valencia",
        "temperatura": 24.3,
        "humedad": 79.0,
        "dpv": 0.64,
        "nivel": "Bajo",
        "color": "#2b83ba",
        "fuente": "AEMET"
      }
    },
    {
      "type": "Feature",
      "geometry": {
        "type": "Point",
        "coordinates": [
          -0.7222,
          38.0886
        ]
      },
      "properties": {
        "estacion": "Rojales",
        "provincia": "Alacant/Alicante",
        "temperatura": 25.9,
        "humedad": 66.0,
        "dpv": 1.14,
        "nivel": "Moderado",
        "color": "#abdda4",
        "fuente": "AEMET"
      }
    },
    {
      "type": "Feature",
      "geometry": {
        "type": "Point",
        "coordinates": [
          -0.3828,
          39.2786
        ]
      },
      "properties": {
        "estacion": "Sollana",
        "provincia": "València/Valencia",
        "temperatura": 24.4,
        "humedad": 82.0,
        "dpv": 0.55,
        "nivel": "Bajo",
        "color": "#2b83ba",
        "fuente": "AEMET"
      }
    },
    {
      "type": "Feature",
      "geometry": {
        "type": "Point",
        "coordinates": [
          -1.2044,
          39.5667
        ]
      },
      "properties": {
        "estacion": "Utiel",
        "provincia": "València/Valencia",
        "temperatura": 24.7,
        "humedad": 46.0,
        "dpv": 1.68,
        "nivel": "Muy alto",
        "color": "#f46d43",
        "fuente": "AEMET"
      }
    },
    {
      "type": "Feature",
      "geometry": {
        "type": "Point",
        "coordinates": [
          -0.3763,
          39.4699
        ]
      },
      "properties": {
        "estacion": "València",
        "provincia": "València/Valencia",
        "temperatura": 26.0,
        "humedad": 68.0,
        "dpv": 1.08,
        "nivel": "Moderado",
        "color": "#abdda4",
        "fuente": "AEMET"
      }
    },
    {
      "type": "Feature",
      "geometry": {
        "type": "Point",
        "coordinates": [
          -0.4816,
          39.4893
        ]
      },
      "properties": {
        "estacion": "Valencia Aeropuerto",
        "provincia": "València/Valencia",
        "temperatura": 25.9,
        "humedad": 64.0,
        "dpv": 1.2,
        "nivel": "Alto",
        "color": "#fdae61",
        "fuente": "AEMET"
      }
    },
    {
      "type": "Feature",
      "geometry": {
        "type": "Point",
        "coordinates": [
          -0.2578,
          40.4272
        ]
      },
      "properties": {
        "estacion": "Villafranca del Cid/Vilafranca",
        "provincia": "Castelló/Castellón",
        "temperatura": 20.0,
        "humedad": 47.0,
        "dpv": 1.24,
        "nivel": "Alto",
        "color": "#fdae61",
        "fuente": "AEMET"
      }
    },
    {
      "type": "Feature",
      "geometry": {
        "type": "Point",
        "coordinates": [
          -0.8657,
          38.6373
        ]
      },
      "properties": {
        "estacion": "Villena",
        "provincia": "Alacant/Alicante",
        "temperatura": 24.3,
        "humedad": 51.0,
        "dpv": 1.49,
        "nivel": "Alto",
        "color": "#fdae61",
        "fuente": "AEMET"
      }
    },
    {
      "type": "Feature",
      "geometry": {
        "type": "Point",
        "coordinates": [
          0.48,
          40.5436
        ]
      },
      "properties": {
        "estacion": "Vinaròs-Viveros Alcanar",
        "provincia": "Castelló/Castellón",
        "temperatura": 25.0,
        "humedad": 69.0,
        "dpv": 0.98,
        "nivel": "Moderado",
        "color": "#abdda4",
        "fuente": "AEMET"
      }
    },
    {
      "type": "Feature",
      "geometry": {
        "type": "Point",
        "coordinates": [
          -0.5156,
          38.989
        ]
      },
      "properties": {
        "estacion": "Xàtiva",
        "provincia": "València/Valencia",
        "temperatura": 27.3,
        "humedad": 49.0,
        "dpv": 1.85,
        "nivel": "Muy alto",
        "color": "#f46d43",
        "fuente": "AEMET"
      }
    },
    {
      "type": "Feature",
      "geometry": {
        "type": "Point",
        "coordinates": [
          -1.0758,
          39.0922
        ]
      },
      "properties": {
        "estacion": "Zarra",
        "provincia": "València/Valencia",
        "temperatura": 23.6,
        "humedad": 46.0,
        "dpv": 1.57,
        "nivel": "Alto",
        "color": "#fdae61",
        "fuente": "AEMET"
      }
    }
  ]
}