{
  "type": "FeatureCollection",
  "features": [
    {
      "type": "Feature",
      "geometry": {
        "type": "Point",
        "coordinates": [
          -0.52,
          38.84
        ]
      },
      "properties": {
        "estacion": "Albaida",
        "temperatura": 24.4,
        "humedad": 38.0,
        "dpv": 1.89,
        "nivel": "Alto",
        "color": "#f46d43",
        "actualizado": "10-10-2026 15:33 UTC",
        "pubDate": "Sat, 10 Oct 2026 15:33:00 +0000",
        "fuente": "Meteoclimatic",
        "url": "http://www.meteoclimatic.net/perfil/ESPVA4600000046860A"
      }
    },
    {
      "type": "Feature",
      "geometry": {
        "type": "Point",
        "coordinates": [
          -0.41,
          39.39
        ]
      },
      "properties": {
        "estacion": "Albal",
        "temperatura": 22.6,
        "humedad": 64.0,
        "dpv": 0.99,
        "nivel": "Bajo",
        "color": "#2b83ba",
        "actualizado": "10-10-2026 15:33 UTC",
        "pubDate": "Sat, 10 Oct 2026 15:33:00 +0000",
        "fuente": "Meteoclimatic",
        "url": "http://www.meteoclimatic.net/perfil/ESPVA4600000046470A"
      }
    },
    {
      "type": "Feature",
      "geometry": {
        "type": "Point",
        "coordinates": [
          -0.39,
          39.2
        ]
      },
      "properties": {
        "estacion": "Albalat de la Ribera",
        "temperatura": 23.3,
        "humedad": 58.0,
        "dpv": 1.2,
        "nivel": "Moderado",
        "color": "#fdae61",
        "actualizado": "10-10-2026 15:33 UTC",
        "pubDate": "Sat, 10 Oct 2026 15:33:00 +0000",
        "fuente": "Meteoclimatic",
        "url": "http://www.meteoclimatic.net/perfil/ESPVA4600000046687A"
      }
    },
    {
      "type": "Feature",
      "geometry": {
        "type": "Point",
        "coordinates": [
          -0.52,
          39.13
        ]
      },
      "properties": {
        "estacion": "Alberic - Nord",
        "temperatura": 24.8,
        "humedad": 52.0,
        "dpv": 1.5,
        "nivel": "Alto",
        "color": "#f46d43",
        "actualizado": "10-10-2026 15:32 UTC",
        "pubDate": "Sat, 10 Oct 2026 15:32:00 +0000",
        "fuente": "Meteoclimatic",
        "url": "http://www.meteoclimatic.net/perfil/ESPVA4600000046260B"
      }
    },
    {
      "type": "Feature",
      "geometry": {
        "type": "Point",
        "coordinates": [
          -0.29,
          38.92
        ]
      },
      "properties": {
        "estacion": "Almiserà",
        "temperatura": 25.1,
        "humedad": 55.0,
        "dpv": 1.43,
        "nivel": "Moderado",
        "color": "#fdae61",
        "actualizado": "10-10-2026 15:35 UTC",
        "pubDate": "Sat, 10 Oct 2026 15:35:00 +0000",
        "fuente": "Meteoclimatic",
        "url": "http://www.meteoclimatic.net/perfil/ESPVA4600000046726A"
      }
    },
    {
      "type": "Feature",
      "geometry": {
        "type": "Point",
        "coordinates": [
          -0.36,
          39.12
        ]
      },
      "properties": {
        "estacion": "Alzira - La Casella",
        "temperatura": 23.7,
        "humedad": 55.0,
        "dpv": 1.32,
        "nivel": "Moderado",
        "color": "#fdae61",
        "actualizado": "10-10-2026 15:32 UTC",
        "pubDate": "Sat, 10 Oct 2026 15:32:00 +0000",
        "fuente": "Meteoclimatic",
        "url": "http://www.meteoclimatic.net/perfil/ESPVA4600000046600E"
      }
    },
    {
      "type": "Feature",
      "geometry": {
        "type": "Point",
        "coordinates": [
          -0.64,
          39.02
        ]
      },
      "properties": {
        "estacion": "Anna",
        "temperatura": 25.3,
        "humedad": 47.0,
        "dpv": 1.71,
        "nivel": "Alto",
        "color": "#f46d43",
        "actualizado": "10-10-2026 15:32 UTC",
        "pubDate": "Sat, 10 Oct 2026 15:32:26 +0000",
        "fuente": "Meteoclimatic",
        "url": "http://www.meteoclimatic.net/perfil/ESPVA4600000046820A"
      }
    },
    {
      "type": "Feature",
      "geometry": {
        "type": "Point",
        "coordinates": [
          -0.42,
          39.02
        ]
      },
      "properties": {
        "estacion": "Barxeta",
        "temperatura": 25.0,
        "humedad": 45.0,
        "dpv": 1.74,
        "nivel": "Alto",
        "color": "#f46d43",
        "actualizado": "10-10-2026 15:33 UTC",
        "pubDate": "Sat, 10 Oct 2026 15:33:00 +0000",
        "fuente": "Meteoclimatic",
        "url": "http://www.meteoclimatic.net/perfil/ESPVA4600000046667A"
      }
    },
    {
      "type": "Feature",
      "geometry": {
        "type": "Point",
        "coordinates": [
          -0.45,
          38.95
        ]
      },
      "properties": {
        "estacion": "Benigànim",
        "temperatura": 25.1,
        "humedad": 44.0,
        "dpv": 1.78,
        "nivel": "Alto",
        "color": "#f46d43",
        "actualizado": "10-10-2026 15:34 UTC",
        "pubDate": "Sat, 10 Oct 2026 15:34:00 +0000",
        "fuente": "Meteoclimatic",
        "url": "http://www.meteoclimatic.net/perfil/ESPVA4600000046830A"
      }
    },
    {
      "type": "Feature",
      "geometry": {
        "type": "Point",
        "coordinates": [
          -0.53,
          39.21
        ]
      },
      "properties": {
        "estacion": "Benimodo",
        "temperatura": 24.1,
        "humedad": 62.0,
        "dpv": 1.14,
        "nivel": "Moderado",
        "color": "#fdae61",
        "actualizado": "10-10-2026 15:40 UTC",
        "pubDate": "Sat, 10 Oct 2026 15:40:00 +0000",
        "fuente": "Meteoclimatic",
        "url": "http://www.meteoclimatic.net/perfil/ESPVA4600000046291B"
      }
    },
    {
      "type": "Feature",
      "geometry": {
        "type": "Point",
        "coordinates": [
          -0.46,
          39.59
        ]
      },
      "properties": {
        "estacion": "Bétera - Centro",
        "temperatura": 23.4,
        "humedad": 51.0,
        "dpv": 1.41,
        "nivel": "Moderado",
        "color": "#fdae61",
        "actualizado": "10-10-2026 15:32 UTC",
        "pubDate": "Sat, 10 Oct 2026 15:32:00 +0000",
        "fuente": "Meteoclimatic",
        "url": "http://www.meteoclimatic.net/perfil/ESPVA4600000046117F"
      }
    },
    {
      "type": "Feature",
      "geometry": {
        "type": "Point",
        "coordinates": [
          -0.79,
          39.42
        ]
      },
      "properties": {
        "estacion": "Buñol - C.Cid",
        "temperatura": 24.0,
        "humedad": 42.0,
        "dpv": 1.73,
        "nivel": "Alto",
        "color": "#f46d43",
        "actualizado": "10-10-2026 15:30 UTC",
        "pubDate": "Sat, 10 Oct 2026 15:30:00 +0000",
        "fuente": "Meteoclimatic",
        "url": "http://www.meteoclimatic.net/perfil/ESPVA4600000046360A"
      }
    },
    {
      "type": "Feature",
      "geometry": {
        "type": "Point",
        "coordinates": [
          -0.59,
          38.96
        ]
      },
      "properties": {
        "estacion": "Canals",
        "temperatura": 26.1,
        "humedad": 37.0,
        "dpv": 2.13,
        "nivel": "Alto",
        "color": "#f46d43",
        "actualizado": "10-10-2026 15:25 UTC",
        "pubDate": "Sat, 10 Oct 2026 15:25:00 +0000",
        "fuente": "Meteoclimatic",
        "url": "http://www.meteoclimatic.net/perfil/ESPVA4600000046650C"
      }
    },
    {
      "type": "Feature",
      "geometry": {
        "type": "Point",
        "coordinates": [
          -0.44,
          39.12
        ]
      },
      "properties": {
        "estacion": "Carcaixent - Muntanyeta",
        "temperatura": 26.2,
        "humedad": 56.0,
        "dpv": 1.5,
        "nivel": "Moderado",
        "color": "#fdae61",
        "actualizado": "10-10-2026 15:32 UTC",
        "pubDate": "Sat, 10 Oct 2026 15:32:00 +0000",
        "fuente": "Meteoclimatic",
        "url": "http://www.meteoclimatic.net/perfil/ESPVA4600000046740D"
      }
    },
    {
      "type": "Feature",
      "geometry": {
        "type": "Point",
        "coordinates": [
          -0.7,
          39.7
        ]
      },
      "properties": {
        "estacion": "casinos",
        "temperatura": 23.2,
        "humedad": 39.0,
        "dpv": 1.73,
        "nivel": "Alto",
        "color": "#f46d43",
        "actualizado": "10-10-2026 15:42 UTC",
        "pubDate": "Sat, 10 Oct 2026 15:42:35 +0000",
        "fuente": "Meteoclimatic",
        "url": "http://www.meteoclimatic.net/perfil/ESPVA4600000046171A"
      }
    },
    {
      "type": "Feature",
      "geometry": {
        "type": "Point",
        "coordinates": [
          -0.51,
          39.08
        ]
      },
      "properties": {
        "estacion": "Castelló",
        "temperatura": 25.6,
        "humedad": 44.0,
        "dpv": 1.84,
        "nivel": "Alto",
        "color": "#f46d43",
        "actualizado": "10-10-2026 15:33 UTC",
        "pubDate": "Sat, 10 Oct 2026 15:33:00 +0000",
        "fuente": "Meteoclimatic",
        "url": "http://www.meteoclimatic.net/perfil/ESPVA4600000046270B"
      }
    },
    {
      "type": "Feature",
      "geometry": {
        "type": "Point",
        "coordinates": [
          -0.68,
          39.49
        ]
      },
      "properties": {
        "estacion": "Cheste",
        "temperatura": 23.4,
        "humedad": 47.0,
        "dpv": 1.53,
        "nivel": "Alto",
        "color": "#f46d43",
        "actualizado": "10-10-2026 15:34 UTC",
        "pubDate": "Sat, 10 Oct 2026 15:34:00 +0000",
        "fuente": "Meteoclimatic",
        "url": "http://www.meteoclimatic.net/perfil/ESPVA4600000046380A"
      }
    },
    {
      "type": "Feature",
      "geometry": {
        "type": "Point",
        "coordinates": [
          -0.58,
          39.43
        ]
      },
      "properties": {
        "estacion": "Chiva - Cumbres Calicanto",
        "temperatura": 21.9,
        "humedad": 56.0,
        "dpv": 1.16,
        "nivel": "Moderado",
        "color": "#fdae61",
        "actualizado": "10-10-2026 15:42 UTC",
        "pubDate": "Sat, 10 Oct 2026 15:42:46 +0000",
        "fuente": "Meteoclimatic",
        "url": "http://www.meteoclimatic.net/perfil/ESPVA4600000046370G"
      }
    },
    {
      "type": "Feature",
      "geometry": {
        "type": "Point",
        "coordinates": [
          -0.23,
          39.19
        ]
      },
      "properties": {
        "estacion": "Cullera - Dosser",
        "temperatura": 22.4,
        "humedad": 65.0,
        "dpv": 0.95,
        "nivel": "Bajo",
        "color": "#2b83ba",
        "actualizado": "10-10-2026 15:33 UTC",
        "pubDate": "Sat, 10 Oct 2026 15:33:00 +0000",
        "fuente": "Meteoclimatic",
        "url": "http://www.meteoclimatic.net/perfil/ESPVA4600000046400D"
      }
    },
    {
      "type": "Feature",
      "geometry": {
        "type": "Point",
        "coordinates": [
          -0.28,
          39.27
        ]
      },
      "properties": {
        "estacion": "El Perelló",
        "temperatura": 22.6,
        "humedad": 66.0,
        "dpv": 0.93,
        "nivel": "Bajo",
        "color": "#2b83ba",
        "actualizado": "10-10-2026 15:32 UTC",
        "pubDate": "Sat, 10 Oct 2026 15:32:00 +0000",
        "fuente": "Meteoclimatic",
        "url": "http://www.meteoclimatic.net/perfil/ESPVA4600000046420A"
      }
    },
    {
      "type": "Feature",
      "geometry": {
        "type": "Point",
        "coordinates": [
          -0.3,
          39.59
        ]
      },
      "properties": {
        "estacion": "El Puig de Santa Maria",
        "temperatura": 22.9,
        "humedad": 51.0,
        "dpv": 1.37,
        "nivel": "Moderado",
        "color": "#fdae61",
        "actualizado": "10-10-2026 15:22 UTC",
        "pubDate": "Sat, 10 Oct 2026 15:22:00 +0000",
        "fuente": "Meteoclimatic",
        "url": "http://www.meteoclimatic.net/perfil/ESPVA4600000046540A"
      }
    },
    {
      "type": "Feature",
      "geometry": {
        "type": "Point",
        "coordinates": [
          -0.27,
          39.72
        ]
      },
      "properties": {
        "estacion": "Faura",
        "temperatura": 23.9,
        "humedad": 49.0,
        "dpv": 1.51,
        "nivel": "Alto",
        "color": "#f46d43",
        "actualizado": "10-10-2026 15:23 UTC",
        "pubDate": "Sat, 10 Oct 2026 15:23:00 +0000",
        "fuente": "Meteoclimatic",
        "url": "http://www.meteoclimatic.net/perfil/ESPVA4600000046512A"
      }
    },
    {
      "type": "Feature",
      "geometry": {
        "type": "Point",
        "coordinates": [
          -0.77,
          38.78
        ]
      },
      "properties": {
        "estacion": "Fontanars dels Alforins",
        "temperatura": 24.2,
        "humedad": 32.0,
        "dpv": 2.05,
        "nivel": "Alto",
        "color": "#f46d43",
        "actualizado": "10-10-2026 15:35 UTC",
        "pubDate": "Sat, 10 Oct 2026 15:35:00 +0000",
        "fuente": "Meteoclimatic",
        "url": "http://www.meteoclimatic.net/perfil/ESPVA4600000046635B"
      }
    },
    {
      "type": "Feature",
      "geometry": {
        "type": "Point",
        "coordinates": [
          -0.17,
          38.98
        ]
      },
      "properties": {
        "estacion": "Gandia",
        "temperatura": 24.2,
        "humedad": 53.0,
        "dpv": 1.42,
        "nivel": "Moderado",
        "color": "#fdae61",
        "actualizado": "10-10-2026 15:32 UTC",
        "pubDate": "Sat, 10 Oct 2026 15:32:00 +0000",
        "fuente": "Meteoclimatic",
        "url": "http://www.meteoclimatic.net/perfil/ESPVA4600000046700B"
      }
    },
    {
      "type": "Feature",
      "geometry": {
        "type": "Point",
        "coordinates": [
          -0.32,
          39.68
        ]
      },
      "properties": {
        "estacion": "Gilet",
        "temperatura": 22.5,
        "humedad": 56.0,
        "dpv": 1.2,
        "nivel": "Moderado",
        "color": "#fdae61",
        "actualizado": "10-10-2026 15:35 UTC",
        "pubDate": "Sat, 10 Oct 2026 15:35:00 +0000",
        "fuente": "Meteoclimatic",
        "url": "http://www.meteoclimatic.net/perfil/ESPVA4600000046149A"
      }
    },
    {
      "type": "Feature",
      "geometry": {
        "type": "Point",
        "coordinates": [
          -0.55,
          38.91
        ]
      },
      "properties": {
        "estacion": "L'Olleria - Ajuntament",
        "temperatura": 24.6,
        "humedad": 38.0,
        "dpv": 1.92,
        "nivel": "Alto",
        "color": "#f46d43",
        "actualizado": "10-10-2026 15:25 UTC",
        "pubDate": "Sat, 10 Oct 2026 15:25:00 +0000",
        "fuente": "Meteoclimatic",
        "url": "http://www.meteoclimatic.net/perfil/ESPVA4600000046850B"
      }
    },
    {
      "type": "Feature",
      "geometry": {
        "type": "Point",
        "coordinates": [
          -0.42,
          38.9
        ]
      },
      "properties": {
        "estacion": "La Pobla del Duc",
        "temperatura": 24.1,
        "humedad": 52.0,
        "dpv": 1.44,
        "nivel": "Moderado",
        "color": "#fdae61",
        "actualizado": "10-10-2026 15:31 UTC",
        "pubDate": "Sat, 10 Oct 2026 15:31:10 +0000",
        "fuente": "Meteoclimatic",
        "url": "http://www.meteoclimatic.net/perfil/ESPVA4600000046840A"
      }
    },
    {
      "type": "Feature",
      "geometry": {
        "type": "Point",
        "coordinates": [
          -0.59,
          39.64
        ]
      },
      "properties": {
        "estacion": "Llíria",
        "temperatura": 23.6,
        "humedad": 48.0,
        "dpv": 1.51,
        "nivel": "Alto",
        "color": "#f46d43",
        "actualizado": "10-10-2026 15:32 UTC",
        "pubDate": "Sat, 10 Oct 2026 15:32:00 +0000",
        "fuente": "Meteoclimatic",
        "url": "http://www.meteoclimatic.net/perfil/ESPVA4600000046160A"
      }
    },
    {
      "type": "Feature",
      "geometry": {
        "type": "Point",
        "coordinates": [
          -0.8,
          38.9
        ]
      },
      "properties": {
        "estacion": "Moixent - Cumbres",
        "temperatura": 22.6,
        "humedad": 41.0,
        "dpv": 1.62,
        "nivel": "Alto",
        "color": "#f46d43",
        "actualizado": "10-10-2026 15:32 UTC",
        "pubDate": "Sat, 10 Oct 2026 15:32:00 +0000",
        "fuente": "Meteoclimatic",
        "url": "http://www.meteoclimatic.net/perfil/ESPVA4600000046640B"
      }
    },
    {
      "type": "Feature",
      "geometry": {
        "type": "Point",
        "coordinates": [
          -0.06,
          38.89
        ]
      },
      "properties": {
        "estacion": "Oliva Nova",
        "temperatura": 24.1,
        "humedad": 49.0,
        "dpv": 1.53,
        "nivel": "Alto",
        "color": "#f46d43",
        "actualizado": "10-10-2026 15:23 UTC",
        "pubDate": "Sat, 10 Oct 2026 15:23:00 +0000",
        "fuente": "Meteoclimatic",
        "url": "http://www.meteoclimatic.net/perfil/ESPVA4600000046780B"
      }
    },
    {
      "type": "Feature",
      "geometry": {
        "type": "Point",
        "coordinates": [
          -0.61,
          38.8
        ]
      },
      "properties": {
        "estacion": "Ontinyent - Alba",
        "temperatura": 25.7,
        "humedad": 35.0,
        "dpv": 2.15,
        "nivel": "Alto",
        "color": "#f46d43",
        "actualizado": "10-10-2026 15:35 UTC",
        "pubDate": "Sat, 10 Oct 2026 15:35:00 +0000",
        "fuente": "Meteoclimatic",
        "url": "http://www.meteoclimatic.net/perfil/ESPVA4600000046870J"
      }
    },
    {
      "type": "Feature",
      "geometry": {
        "type": "Point",
        "coordinates": [
          -0.75,
          39.6
        ]
      },
      "properties": {
        "estacion": "Pedralba - Serretilla",
        "temperatura": 24.4,
        "humedad": 42.0,
        "dpv": 1.77,
        "nivel": "Alto",
        "color": "#f46d43",
        "actualizado": "10-10-2026 15:32 UTC",
        "pubDate": "Sat, 10 Oct 2026 15:32:00 +0000",
        "fuente": "Meteoclimatic",
        "url": "http://www.meteoclimatic.net/perfil/ESPVA4600000046164C"
      }
    },
    {
      "type": "Feature",
      "geometry": {
        "type": "Point",
        "coordinates": [
          -0.4,
          38.96
        ]
      },
      "properties": {
        "estacion": "Quatretonda",
        "temperatura": 24.6,
        "humedad": 51.0,
        "dpv": 1.52,
        "nivel": "Alto",
        "color": "#f46d43",
        "actualizado": "10-10-2026 15:29 UTC",
        "pubDate": "Sat, 10 Oct 2026 15:29:00 +0000",
        "fuente": "Meteoclimatic",
        "url": "http://www.meteoclimatic.net/perfil/ESPVA4600000046837A"
      }
    },
    {
      "type": "Feature",
      "geometry": {
        "type": "Point",
        "coordinates": [
          -0.74,
          39.12
        ]
      },
      "properties": {
        "estacion": "Quesa - EcoCampingQuesa",
        "temperatura": 23.0,
        "humedad": 40.0,
        "dpv": 1.69,
        "nivel": "Alto",
        "color": "#f46d43",
        "actualizado": "10-10-2026 15:32 UTC",
        "pubDate": "Sat, 10 Oct 2026 15:32:00 +0000",
        "fuente": "Meteoclimatic",
        "url": "http://www.meteoclimatic.net/perfil/ESPVA4600000046824A"
      }
    },
    {
      "type": "Feature",
      "geometry": {
        "type": "Point",
        "coordinates": [
          -0.22,
          39.66
        ]
      },
      "properties": {
        "estacion": "Sagunt - Port de Sagunt",
        "temperatura": 21.9,
        "humedad": 53.0,
        "dpv": 1.24,
        "nivel": "Moderado",
        "color": "#fdae61",
        "actualizado": "10-10-2026 15:33 UTC",
        "pubDate": "Sat, 10 Oct 2026 15:33:00 +0000",
        "fuente": "Meteoclimatic",
        "url": "http://www.meteoclimatic.net/perfil/ESPVA4600000046520D"
      }
    },
    {
      "type": "Feature",
      "geometry": {
        "type": "Point",
        "coordinates": [
          -0.31,
          39.21
        ]
      },
      "properties": {
        "estacion": "Sueca",
        "temperatura": 25.0,
        "humedad": 51.0,
        "dpv": 1.55,
        "nivel": "Alto",
        "color": "#f46d43",
        "actualizado": "10-10-2026 15:35 UTC",
        "pubDate": "Sat, 10 Oct 2026 15:35:00 +0000",
        "fuente": "Meteoclimatic",
        "url": "http://www.meteoclimatic.net/perfil/ESPVA4600000046410A"
      }
    },
    {
      "type": "Feature",
      "geometry": {
        "type": "Point",
        "coordinates": [
          -0.27,
          39.08
        ]
      },
      "properties": {
        "estacion": "Tavernes de la Valldigna",
        "temperatura": 23.4,
        "humedad": 56.0,
        "dpv": 1.27,
        "nivel": "Moderado",
        "color": "#fdae61",
        "actualizado": "10-10-2026 15:33 UTC",
        "pubDate": "Sat, 10 Oct 2026 15:33:00 +0000",
        "fuente": "Meteoclimatic",
        "url": "http://www.meteoclimatic.net/perfil/ESPVA4600000046115B"
      }
    },
    {
      "type": "Feature",
      "geometry": {
        "type": "Point",
        "coordinates": [
          -1.26,
          40.09
        ]
      },
      "properties": {
        "estacion": "Torrebaja",
        "temperatura": 24.4,
        "humedad": 36.0,
        "dpv": 1.96,
        "nivel": "Alto",
        "color": "#f46d43",
        "actualizado": "10-10-2026 15:30 UTC",
        "pubDate": "Sat, 10 Oct 2026 15:30:00 +0000",
        "fuente": "Meteoclimatic",
        "url": "http://www.meteoclimatic.net/perfil/ESPVA4600000046143A"
      }
    },
    {
      "type": "Feature",
      "geometry": {
        "type": "Point",
        "coordinates": [
          -0.48,
          39.43
        ]
      },
      "properties": {
        "estacion": "Torrent - Av. Al Vedat",
        "temperatura": 22.4,
        "humedad": 63.0,
        "dpv": 1.0,
        "nivel": "Moderado",
        "color": "#fdae61",
        "actualizado": "10-10-2026 15:42 UTC",
        "pubDate": "Sat, 10 Oct 2026 15:42:00 +0000",
        "fuente": "Meteoclimatic",
        "url": "http://www.meteoclimatic.net/perfil/ESPVA4600000046900C"
      }
    },
    {
      "type": "Feature",
      "geometry": {
        "type": "Point",
        "coordinates": [
          -0.59,
          39.14
        ]
      },
      "properties": {
        "estacion": "Tous",
        "temperatura": 24.3,
        "humedad": 57.0,
        "dpv": 1.31,
        "nivel": "Moderado",
        "color": "#fdae61",
        "actualizado": "10-10-2026 15:34 UTC",
        "pubDate": "Sat, 10 Oct 2026 15:34:00 +0000",
        "fuente": "Meteoclimatic",
        "url": "http://www.meteoclimatic.net/perfil/ESPVA4600000046269A"
      }
    },
    {
      "type": "Feature",
      "geometry": {
        "type": "Point",
        "coordinates": [
          -0.72,
          39.36
        ]
      },
      "properties": {
        "estacion": "Turís - Greenval",
        "temperatura": 22.6,
        "humedad": 58.0,
        "dpv": 1.15,
        "nivel": "Moderado",
        "color": "#fdae61",
        "actualizado": "10-10-2026 15:31 UTC",
        "pubDate": "Sat, 10 Oct 2026 15:31:00 +0000",
        "fuente": "Meteoclimatic",
        "url": "http://www.meteoclimatic.net/perfil/ESPVA4600000046389A"
      }
    },
    {
      "type": "Feature",
      "geometry": {
        "type": "Point",
        "coordinates": [
          -0.35,
          39.47
        ]
      },
      "properties": {
        "estacion": "Valencia - Caravaca",
        "temperatura": 22.5,
        "humedad": 51.0,
        "dpv": 1.34,
        "nivel": "Moderado",
        "color": "#fdae61",
        "actualizado": "10-10-2026 15:34 UTC",
        "pubDate": "Sat, 10 Oct 2026 15:34:13 +0000",
        "fuente": "Meteoclimatic",
        "url": "http://www.meteoclimatic.net/perfil/ESPVA4600000046021B"
      }
    },
    {
      "type": "Feature",
      "geometry": {
        "type": "Point",
        "coordinates": [
          -0.21,
          38.88
        ]
      },
      "properties": {
        "estacion": "Vilallonga/Villalonga-Aj.",
        "temperatura": 24.7,
        "humedad": 47.0,
        "dpv": 1.65,
        "nivel": "Alto",
        "color": "#f46d43",
        "actualizado": "10-10-2026 15:34 UTC",
        "pubDate": "Sat, 10 Oct 2026 15:34:00 +0000",
        "fuente": "Meteoclimatic",
        "url": "http://www.meteoclimatic.net/perfil/ESPVA4600000046720C"
      }
    },
    {
      "type": "Feature",
      "geometry": {
        "type": "Point",
        "coordinates": [
          -0.62,
          39.57
        ]
      },
      "properties": {
        "estacion": "Vilamarxant - Aj.",
        "temperatura": 23.7,
        "humedad": 48.0,
        "dpv": 1.52,
        "nivel": "Alto",
        "color": "#f46d43",
        "actualizado": "10-10-2026 15:31 UTC",
        "pubDate": "Sat, 10 Oct 2026 15:31:00 +0000",
        "fuente": "Meteoclimatic",
        "url": "http://www.meteoclimatic.net/perfil/ESPVA4600000046191D"
      }
    },
    {
      "type": "Feature",
      "geometry": {
        "type": "Point",
        "coordinates": [
          -0.52,
          38.99
        ]
      },
      "properties": {
        "estacion": "Xàtiva - Ajuntament",
        "temperatura": 26.3,
        "humedad": 36.0,
        "dpv": 2.19,
        "nivel": "Alto",
        "color": "#f46d43",
        "actualizado": "10-10-2026 15:22 UTC",
        "pubDate": "Sat, 10 Oct 2026 15:22:00 +0000",
        "fuente": "Meteoclimatic",
        "url": "http://www.meteoclimatic.net/perfil/ESPVA4600000046800F"
      }
    },
    {
      "type": "Feature",
      "geometry": {
        "type": "Point",
        "coordinates": [
          -0.22,
          39.01
        ]
      },
      "properties": {
        "estacion": "Xeresa",
        "temperatura": 24.0,
        "humedad": 52.0,
        "dpv": 1.43,
        "nivel": "Moderado",
        "color": "#fdae61",
        "actualizado": "10-10-2026 15:32 UTC",
        "pubDate": "Sat, 10 Oct 2026 15:32:00 +0000",
        "fuente": "Meteoclimatic",
        "url": "http://www.meteoclimatic.net/perfil/ESPVA4600000046790A"
      }
    },
    {
      "type": "Feature",
      "geometry": {
        "type": "Point",
        "coordinates": [
          -0.42,
          39.46
        ]
      },
      "properties": {
        "estacion": "Xirivella",
        "temperatura": 24.0,
        "humedad": 50.0,
        "dpv": 1.49,
        "nivel": "Moderado",
        "color": "#fdae61",
        "actualizado": "10-10-2026 15:40 UTC",
        "pubDate": "Sat, 10 Oct 2026 15:40:29 +0000",
        "fuente": "Meteoclimatic",
        "url": "http://www.meteoclimatic.net/perfil/ESPVA4600000046950B"
      }
    }
  ]
}